[{"OBJECT_NAME":"STARLINK-37150","OBJECT_ID":"2026-057X","EPOCH":"2026-03-28T20:00:01.999872","MEAN_MOTION":16.03920378,"ECCENTRICITY":0.0001205,"INCLINATION":97.2786,"RA_OF_ASC_NODE":210.9705,"ARG_OF_PERICENTER":87.5524,"MEAN_ANOMALY":182.8305,"EPHEMERIS_TYPE":0,"CLASSIFICATION_TYPE":"U","NORAD_CAT_ID":68315,"ELEMENT_SET_NO":999,"REV_AT_EPOCH":233,"BSTAR":-0.0018333935,"MEAN_MOTION_DOT":-0.01160866,"MEAN_MOTION_DDOT":0.0004519457},{"OBJECT_NAME":"STARLINK-37154","OBJECT_ID":"2026-057Y","EPOCH":"2026-03-28T20:00:01.999872","MEAN_MOTION":16.04322357,"ECCENTRICITY":0.0001048,"INCLINATION":97.278,"RA_OF_ASC_NODE":210.9743,"ARG_OF_PERICENTER":74.8273,"MEAN_ANOMALY":204.3137,"EPHEMERIS_TYPE":0,"CLASSIFICATION_TYPE":"U","NORAD_CAT_ID":68316,"ELEMENT_SET_NO":999,"REV_AT_EPOCH":223,"BSTAR":-0.0017737026,"MEAN_MOTION_DOT":-0.01150392,"MEAN_MOTION_DDOT":0.00044656503},{"OBJECT_NAME":"STARLINK-37139","OBJECT_ID":"2026-057Z","EPOCH":"2026-03-28T20:00:01.999872","MEAN_MOTION":16.04191338,"ECCENTRICITY":0.00011309,"INCLINATION":97.2782,"RA_OF_ASC_NODE":210.9729,"ARG_OF_PERICENTER":81.7529,"MEAN_ANOMALY":194.4132,"EPHEMERIS_TYPE":0,"CLASSIFICATION_TYPE":"U","NORAD_CAT_ID":68317,"ELEMENT_SET_NO":999,"REV_AT_EPOCH":208,"BSTAR":-0.0018088844,"MEAN_MOTION_DOT":-0.01163941,"MEAN_MOTION_DDOT":0.00045562517},{"OBJECT_NAME":"STARLINK-37113","OBJECT_ID":"2026-057AA","EPOCH":"2026-03-28T20:00:01.999872","MEAN_MOTION":16.04468956,"ECCENTRICITY":9.647e-5,"INCLINATION":97.2782,"RA_OF_ASC_NODE":210.9756,"ARG_OF_PERICENTER":70.5301,"MEAN_ANOMALY":211.7389,"EPHEMERIS_TYPE":0,"CLASSIFICATION_TYPE":"U","NORAD_CAT_ID":68318,"ELEMENT_SET_NO":999,"REV_AT_EPOCH":233,"BSTAR":-0.0017595285,"MEAN_MOTION_DOT":-0.01151235,"MEAN_MOTION_DDOT":0.00044795303},{"OBJECT_NAME":"PROGRESS-MS 33","OBJECT_ID":"2026-058A","EPOCH":"2026-03-30T03:57:49.771296","MEAN_MOTION":15.48649502,"ECCENTRICITY":0.0006182,"INCLINATION":51.6344,"RA_OF_ASC_NODE":331.1363,"ARG_OF_PERICENTER":249.8594,"MEAN_ANOMALY":110.1729,"EPHEMERIS_TYPE":0,"CLASSIFICATION_TYPE":"U","NORAD_CAT_ID":68319,"ELEMENT_SET_NO":999,"REV_AT_EPOCH":97,"BSTAR":0.00023377,"MEAN_MOTION_DOT":0.00012299,"MEAN_MOTION_DDOT":0},{"OBJECT_NAME":"CENTISPACE-1 OBJECT A","OBJECT_ID":"2026-060A","EPOCH":"2026-03-30T05:27:29.941632","MEAN_MOTION":14.74876969,"ECCENTRICITY":0.0012943,"INCLINATION":54.9836,"RA_OF_ASC_NODE":357.8401,"ARG_OF_PERICENTER":311.7098,"MEAN_ANOMALY":48.2793,"EPHEMERIS_TYPE":0,"CLASSIFICATION_TYPE":"U","NORAD_CAT_ID":68350,"ELEMENT_SET_NO":999,"REV_AT_EPOCH":112,"BSTAR":4.257e-5,"MEAN_MOTION_DOT":7.9e-7,"MEAN_MOTION_DDOT":0},{"OBJECT_NAME":"CENTISPACE-1 OBJECT B","OBJECT_ID":"2026-060B","EPOCH":"2026-03-30T03:49:40.092384","MEAN_MOTION":14.74917531,"ECCENTRICITY":0.0013105,"INCLINATION":54.9831,"RA_OF_ASC_NODE":358.1131,"ARG_OF_PERICENTER":311.5641,"MEAN_ANOMALY":48.4234,"EPHEMERIS_TYPE":0,"CLASSIFICATION_TYPE":"U","NORAD_CAT_ID":68351,"ELEMENT_SET_NO":999,"REV_AT_EPOCH":111,"BSTAR":4.2041e-5,"MEAN_MOTION_DOT":7.5e-7,"MEAN_MOTION_DDOT":0},{"OBJECT_NAME":"CENTISPACE-1 OBJECT C","OBJECT_ID":"2026-060C","EPOCH":"2026-03-30T05:25:55.756992","MEAN_MOTION":14.7509809,"ECCENTRICITY":0.0012574,"INCLINATION":54.9833,"RA_OF_ASC_NODE":357.8282,"ARG_OF_PERICENTER":317.5199,"MEAN_ANOMALY":42.4827,"EPHEMERIS_TYPE":0,"CLASSIFICATION_TYPE":"U","NORAD_CAT_ID":68352,"ELEMENT_SET_NO":999,"REV_AT_EPOCH":112,"BSTAR":4.2667e-5,"MEAN_MOTION_DOT":8.0e-7,"MEAN_MOTION_DDOT":0},{"OBJECT_NAME":"CENTISPACE-1 OBJECT D","OBJECT_ID":"2026-060D","EPOCH":"2026-03-28T01:23:09.602592","MEAN_MOTION":14.75149317,"ECCENTRICITY":0.0012484,"INCLINATION":54.9867,"RA_OF_ASC_NODE":6.6935,"ARG_OF_PERICENTER":311.4708,"MEAN_ANOMALY":48.5219,"EPHEMERIS_TYPE":0,"CLASSIFICATION_TYPE":"U","NORAD_CAT_ID":68353,"ELEMENT_SET_NO":999,"REV_AT_EPOCH":80,"BSTAR":3.6681e-5,"MEAN_MOTION_DOT":4.0e-7,"MEAN_MOTION_DDOT":0},{"OBJECT_NAME":"CENTISPACE-1 OBJECT E","OBJECT_ID":"2026-060E","EPOCH":"2026-03-30T05:25:12.278784","MEAN_MOTION":14.75197335,"ECCENTRICITY":0.0013311,"INCLINATION":54.9775,"RA_OF_ASC_NODE":357.8294,"ARG_OF_PERICENTER":318.842,"MEAN_ANOMALY":41.1575,"EPHEMERIS_TYPE":0,"CLASSIFICATION_TYPE":"U","NORAD_CAT_ID":68354,"ELEMENT_SET_NO":999,"REV_AT_EPOCH":112,"BSTAR":4.1609e-5,"MEAN_MOTION_DOT":7.3e-7,"MEAN_MOTION_DDOT":0},{"OBJECT_NAME":"CENTISPACE-1 OBJECT F","OBJECT_ID":"2026-060F","EPOCH":"2026-03-30T05:24:57.483648","MEAN_MOTION":14.75234688,"ECCENTRICITY":0.0013701,"INCLINATION":54.978,"RA_OF_ASC_NODE":357.8276,"ARG_OF_PERICENTER":317.6212,"MEAN_ANOMALY":42.3728,"EPHEMERIS_TYPE":0,"CLASSIFICATION_TYPE":"U","NORAD_CAT_ID":68355,"ELEMENT_SET_NO":999,"REV_AT_EPOCH":112,"BSTAR":4.2172e-5,"MEAN_MOTION_DOT":7.7e-7,"MEAN_MOTION_DDOT":0},{"OBJECT_NAME":"CENTISPACE-1 OBJECT G","OBJECT_ID":"2026-060G","EPOCH":"2026-03-30T05:24:22.578912","MEAN_MOTION":14.75309159,"ECCENTRICITY":0.0013839,"INCLINATION":54.9899,"RA_OF_ASC_NODE":357.8228,"ARG_OF_PERICENTER":318.8864,"MEAN_ANOMALY":41.1092,"EPHEMERIS_TYPE":0,"CLASSIFICATION_TYPE":"U","NORAD_CAT_ID":68356,"ELEMENT_SET_NO":999,"REV_AT_EPOCH":112,"BSTAR":4.2227e-5,"MEAN_MOTION_DOT":7.8e-7,"MEAN_MOTION_DDOT":0},{"OBJECT_NAME":"CENTISPACE-1 OBJECT H","OBJECT_ID":"2026-060H","EPOCH":"2026-03-25T14:49:38.254368","MEAN_MOTION":14.75425125,"ECCENTRICITY":0.00144709,"INCLINATION":54.9848,"RA_OF_ASC_NODE":16.6351,"ARG_OF_PERICENTER":304.4277,"MEAN_ANOMALY":55.5354,"EPHEMERIS_TYPE":0,"CLASSIFICATION_TYPE":"U","NORAD_CAT_ID":68357,"ELEMENT_SET_NO":999,"REV_AT_EPOCH":44,"BSTAR":3.3491501e-5,"MEAN_MOTION_DOT":1.9e-7,"MEAN_MOTION_DDOT":0},{"OBJECT_NAME":"CENTISPACE-1 OBJECT J","OBJECT_ID":"2026-060J","EPOCH":"2026-03-25T14:49:37.060320","MEAN_MOTION":14.75435012,"ECCENTRICITY":0.0013871,"INCLINATION":54.9877,"RA_OF_ASC_NODE":16.6351,"ARG_OF_PERICENTER":306.1411,"MEAN_ANOMALY":53.8304,"EPHEMERIS_TYPE":0,"CLASSIFICATION_TYPE":"U","NORAD_CAT_ID":68358,"ELEMENT_SET_NO":999,"REV_AT_EPOCH":44,"BSTAR":3.3263e-5,"MEAN_MOTION_DOT":1.7e-7,"MEAN_MOTION_DDOT":0},{"OBJECT_NAME":"CENTISPACE-1 OBJECT K","OBJECT_ID":"2026-060K","EPOCH":"2026-03-28T20:51:56.577312","MEAN_MOTION":14.75497382,"ECCENTRICITY":0.00146657,"INCLINATION":54.9801,"RA_OF_ASC_NODE":3.3573,"ARG_OF_PERICENTER":314.9648,"MEAN_ANOMALY":45.0162,"EPHEMERIS_TYPE":0,"CLASSIFICATION_TYPE":"U","NORAD_CAT_ID":68359,"ELEMENT_SET_NO":999,"REV_AT_EPOCH":92,"BSTAR":3.5282325e-5,"MEAN_MOTION_DOT":3.1e-7,"MEAN_MOTION_DDOT":0},{"OBJECT_NAME":"SUPERVIEW NEO-2 OBJECT A","OBJECT_ID":"2026-062A","EPOCH":"2026-03-28T02:27:44.406720","MEAN_MOTION":15.20117201,"ECCENTRICITY":0.00081688,"INCLINATION":97.4379,"RA_OF_ASC_NODE":95.5549,"ARG_OF_PERICENTER":263.6047,"MEAN_ANOMALY":96.4258,"EPHEMERIS_TYPE":0,"CLASSIFICATION_TYPE":"U","NORAD_CAT_ID":68377,"ELEMENT_SET_NO":999,"REV_AT_EPOCH":33,"BSTAR":7.2014081e-5,"MEAN_MOTION_DOT":1.488e-5,"MEAN_MOTION_DDOT":0}]
