STARLINK-37150          
1 68315U 26057X   26087.83335648 -.01160866  45195-3 -18334-2 0  9994
2 68315  97.2786 210.9705 0001205  87.5524 182.8305 16.03920378  2331
STARLINK-37154          
1 68316U 26057Y   26087.83335648 -.01150392  44657-3 -17737-2 0  9996
2 68316  97.2780 210.9743 0001048  74.8273 204.3137 16.04322357  2239
STARLINK-37139          
1 68317U 26057Z   26087.83335648 -.01163941  45563-3 -18089-2 0  9999
2 68317  97.2782 210.9729 0001130  81.7529 194.4132 16.04191338  2089
STARLINK-37113          
1 68318U 26057AA  26087.83335648 -.01151235  44795-3 -17595-2 0  9990
2 68318  97.2782 210.9756 0000964  70.5301 211.7389 16.04468956  2336
PROGRESS-MS 33          
1 68319U 26058A   26089.16515939  .00012299  00000+0  23377-3 0  9999
2 68319  51.6344 331.1363 0006182 249.8594 110.1729 15.48649502   971
CENTISPACE-1 OBJECT A   
1 68350U 26060A   26089.22742988  .00000079  00000+0  42570-4 0  9990
2 68350  54.9836 357.8401 0012943 311.7098  48.2793 14.74876969  1123
CENTISPACE-1 OBJECT B   
1 68351U 26060B   26089.15949181  .00000075  00000+0  42041-4 0  9996
2 68351  54.9831 358.1131 0013105 311.5641  48.4234 14.74917531  1118
CENTISPACE-1 OBJECT C   
1 68352U 26060C   26089.22633978  .00000080  00000+0  42667-4 0  9999
2 68352  54.9833 357.8282 0012574 317.5199  42.4827 14.75098090  1121
CENTISPACE-1 OBJECT D   
1 68353U 26060D   26087.05775003  .00000040  00000+0  36681-4 0  9990
2 68353  54.9867   6.6935 0012484 311.4708  48.5219 14.75149317   807
CENTISPACE-1 OBJECT E   
1 68354U 26060E   26089.22583656  .00000073  00000+0  41609-4 0  9995
2 68354  54.9775 357.8294 0013311 318.8420  41.1575 14.75197335  1120
CENTISPACE-1 OBJECT F   
1 68355U 26060F   26089.22566532  .00000077  00000+0  42172-4 0  9990
2 68355  54.9780 357.8276 0013701 317.6212  42.3728 14.75234688  1122
CENTISPACE-1 OBJECT G   
1 68356U 26060G   26089.22526133  .00000078  00000+0  42227-4 0  9996
2 68356  54.9899 357.8228 0013839 318.8864  41.1092 14.75309159  1126
CENTISPACE-1 OBJECT H   
1 68357U 26060H   26084.61780387  .00000019  00000+0  33492-4 0  9997
2 68357  54.9848  16.6351 0014470 304.4277  55.5354 14.75425125   445
CENTISPACE-1 OBJECT J   
1 68358U 26060J   26084.61779005  .00000017  00000+0  33263-4 0  9997
2 68358  54.9877  16.6351 0013871 306.1411  53.8304 14.75435012   443
CENTISPACE-1 OBJECT K   
1 68359U 26060K   26087.86940483  .00000031  00000+0  35282-4 0  9997
2 68359  54.9801   3.3573 0014665 314.9648  45.0162 14.75497382   927
SUPERVIEW NEO-2 OBJECT A
1 68377U 26062A   26087.10259730  .00001488  00000+0  72014-4 0  9995
2 68377  97.4379  95.5549 0008168 263.6047  96.4258 15.20117201   330
